CTC1_L_00171001-01
1 50686U 25313NR  26037.47803241  .00000000  00000+0  00000-0 0  9995
2 50686  50.0000   0.0000 0000000   0.0000   0.0000 13.89609337    12
CTC1_L_00171001-02
1 50687U 26880HW  26037.47803241  .00000000  00000+0  00000-0 0  9996
2 50687  50.0000   0.0000 0000000   0.0000  90.0000 13.89609337    12
CTC1_L_00171001-03
1 50688U 23855PN  26037.47803241  .00000000  00000+0  00000-0 0  9996
2 50688  50.0000   0.0000 0000000   0.0000 180.0000 13.89609337    13
CTC1_L_00171001-04
1 50689U 24644YR  26037.47803241  .00000000  00000+0  00000-0 0  9994
2 50689  50.0000   0.0000 0000000   0.0000 270.0000 13.89609337    14
CTC1_L_00171002-01
1 50690U 23520HR  26037.47803241  .00000000  00000+0  00000-0 0  9998
2 50690  50.0000  12.0000 0000000   0.0000  12.0000 13.89609337    13
CTC1_L_00171002-02
1 50691U 24271ST  26037.47803241  .00000000  00000+0  00000-0 0  9993
2 50691  50.0000  12.0000 0000000   0.0000 102.0000 13.89609337    14
CTC1_L_00171002-03
1 50692U 22834T   26037.47803241  .00000000  00000+0  00000-0 0  9997
2 50692  50.0000  12.0000 0000000   0.0000 192.0000 13.89609337    14
CTC1_L_00171002-04
1 50693U 24023VU  26037.47803241  .00000000  00000+0  00000-0 0  9990
2 50693  50.0000  12.0000 0000000   0.0000 282.0000 13.89609337    15
CTC1_L_00171003-01
1 50694U 24218NQ  26037.47803241  .00000000  00000+0  00000-0 0  9997
2 50694  50.0000  24.0000 0000000   0.0000  24.0000 13.89609337    13
CTC1_L_00171003-02
1 50695U 22792AZ  26037.47803241  .00000000  00000+0  00000-0 0  9993
2 50695  50.0000  24.0000 0000000   0.0000 114.0000 13.89609337    14
CTC1_L_00171003-03
1 50696U 22482TC  26037.47803241  .00000000  00000+0  00000-0 0  9990
2 50696  50.0000  24.0000 0000000   0.0000 204.0000 13.89609337    15
CTC1_L_00171003-04
1 50697U 26855ZP  26037.47803241  .00000000  00000+0  00000-0 0  9999
2 50697  50.0000  24.0000 0000000   0.0000 294.0000 13.89609337    15
CTC1_L_00171004-01
1 50698U 23135MH  26037.47803241  .00000000  00000+0  00000-0 0  9998
2 50698  50.0000  36.0000 0000000   0.0000  36.0000 13.89609337    13
CTC1_L_00171004-02
1 50699U 22653IG  26037.47803241  .00000000  00000+0  00000-0 0  9993
2 50699  50.0000  36.0000 0000000   0.0000 126.0000 13.89609337    14
CTC1_L_00171004-03
1 50700U 25694MB  26037.47803241  .00000000  00000+0  00000-0 0  9994
2 50700  50.0000  36.0000 0000000   0.0000 216.0000 13.89609337    17
CTC1_L_00171004-04
1 50701U 23628NE  26037.47803241  .00000000  00000+0  00000-0 0  9990
2 50701  50.0000  36.0000 0000000   0.0000 306.0000 13.89609337    18
CTC1_L_00171005-01
1 50702U 22567FC  26037.47803241  .00000000  00000+0  00000-0 0  9992
2 50702  50.0000  48.0000 0000000   0.0000  48.0000 13.89609337    15
CTC1_L_00171005-02
1 50703U 25434YS  26037.47803241  .00000000  00000+0  00000-0 0  9999
2 50703  50.0000  48.0000 0000000   0.0000 138.0000 13.89609337    16
CTC1_L_00171005-03
1 50704U 26133YJ  26037.47803241  .00000000  00000+0  00000-0 0  9997
2 50704  50.0000  48.0000 0000000   0.0000 228.0000 13.89609337    17
CTC1_L_00171005-04
1 50705U 26880XA  26037.47803241  .00000000  00000+0  00000-0 0  9997
2 50705  50.0000  48.0000 0000000   0.0000 318.0000 13.89609337    18
CTC1_L_00171006-01
1 50706U 24363RX  26037.47803241  .00000000  00000+0  00000-0 0  9992
2 50706  50.0000  60.0000 0000000   0.0000  60.0000 13.89609337    17
CTC1_L_00171006-02
1 50707U 23197HW  26037.47803241  .00000000  00000+0  00000-0 0  9997
2 50707  50.0000  60.0000 0000000   0.0000 150.0000 13.89609337    18
CTC1_L_00171006-03
1 50708U 22277CA  26037.47803241  .00000000  00000+0  00000-0 0  9996
2 50708  50.0000  60.0000 0000000   0.0000 240.0000 13.89609337    19
CTC1_L_00171006-04
1 50709U 23643ZM  26037.47803241  .00000000  00000+0  00000-0 0  9995
2 50709  50.0000  60.0000 0000000   0.0000 330.0000 13.89609337    10
CTC1_L_00171007-01
1 50710U 25490OD  26037.47803241  .00000000  00000+0  00000-0 0  9999
2 50710  50.0000  72.0000 0000000   0.0000  72.0000 13.89609337    18
CTC1_L_00171007-02
1 50711U 25344SN  26037.47803241  .00000000  00000+0  00000-0 0  9998
2 50711  50.0000  72.0000 0000000   0.0000 162.0000 13.89609337    19
CTC1_L_00171007-03
1 50712U 22967ZZ  26037.47803241  .00000000  00000+0  00000-0 0  9997
2 50712  50.0000  72.0000 0000000   0.0000 252.0000 13.89609337    10
CTC1_L_00171007-04
1 50713U 23836GX  26037.47803241  .00000000  00000+0  00000-0 0  9994
2 50713  50.0000  72.0000 0000000   0.0000 342.0000 13.89609337    11
CTC1_L_00171008-01
1 50714U 26063OC  26037.47803241  .00000000  00000+0  00000-0 0  9990
2 50714  50.0000  84.0000 0000000   0.0000  84.0000 13.89609337    18
CTC1_L_00171008-02
1 50715U 22415DN  26037.47803241  .00000000  00000+0  00000-0 0  9998
2 50715  50.0000  84.0000 0000000   0.0000 174.0000 13.89609337    19
CTC1_L_00171008-03
1 50716U 22313VM  26037.47803241  .00000000  00000+0  00000-0 0  9996
2 50716  50.0000  84.0000 0000000   0.0000 264.0000 13.89609337    10
CTC1_L_00171008-04
1 50717U 23722ST  26037.47803241  .00000000  00000+0  00000-0 0  9992
2 50717  50.0000  84.0000 0000000   0.0000 354.0000 13.89609337    11
CTC1_L_00171009-01
1 50718U 22376BF  26037.47803241  .00000000  00000+0  00000-0 0  9997
2 50718  50.0000  96.0000 0000000   0.0000  96.0000 13.89609337    18
CTC1_L_00171009-02
1 50719U 25761JN  26037.47803241  .00000000  00000+0  00000-0 0  9999
2 50719  50.0000  96.0000 0000000   0.0000 186.0000 13.89609337    19
CTC1_L_00171009-03
1 50720U 25377NM  26037.47803241  .00000000  00000+0  00000-0 0  9994
2 50720  50.0000  96.0000 0000000   0.0000 276.0000 13.89609337    11
CTC1_L_00171009-04
1 50721U 22740DQ  26037.47803241  .00000000  00000+0  00000-0 0  9996
2 50721  50.0000  96.0000 0000000   0.0000   6.0000 13.89609337    13
CTC1_L_00171010-01
1 50722U 25512HN  26037.47803241  .00000000  00000+0  00000-0 0  9997
2 50722  50.0000 108.0000 0000000   0.0000 108.0000 13.89609337    11
CTC1_L_00171010-02
1 50723U 22709IK  26037.47803241  .00000000  00000+0  00000-0 0  9993
2 50723  50.0000 108.0000 0000000   0.0000 198.0000 13.89609337    11
CTC1_L_00171010-03
1 50724U 25195GQ  26037.47803241  .00000000  00000+0  00000-0 0  9996
2 50724  50.0000 108.0000 0000000   0.0000 288.0000 13.89609337    12
CTC1_L_00171010-04
1 50725U 22028AL  26037.47803241  .00000000  00000+0  00000-0 0  9999
2 50725  50.0000 108.0000 0000000   0.0000  18.0000 13.89609337    14
CTC1_L_00171011-01
1 50726U 26509VL  26037.47803241  .00000000  00000+0  00000-0 0  9998
2 50726  50.0000 120.0000 0000000   0.0000 120.0000 13.89609337    13
CTC1_L_00171011-02
1 50727U 22632SM  26037.47803241  .00000000  00000+0  00000-0 0  9992
2 50727  50.0000 120.0000 0000000   0.0000 210.0000 13.89609337    14
CTC1_L_00171011-03
1 50728U 24618HD  26037.47803241  .00000000  00000+0  00000-0 0  9999
2 50728  50.0000 120.0000 0000000   0.0000 300.0000 13.89609337    15
CTC1_L_00171011-04
1 50729U 22433UB  26037.47803241  .00000000  00000+0  00000-0 0  9993
2 50729  50.0000 120.0000 0000000   0.0000  30.0000 13.89609337    16
CTC1_L_00171012-01
1 50730U 25228HP  26037.47803241  .00000000  00000+0  00000-0 0  9990
2 50730  50.0000 132.0000 0000000   0.0000 132.0000 13.89609337    14
CTC1_L_00171012-02
1 50731U 24786KY  26037.47803241  .00000000  00000+0  00000-0 0  9999
2 50731  50.0000 132.0000 0000000   0.0000 222.0000 13.89609337    15
CTC1_L_00171012-03
1 50732U 26538ED  26037.47803241  .00000000  00000+0  00000-0 0  9997
2 50732  50.0000 132.0000 0000000   0.0000 312.0000 13.89609337    16
CTC1_L_00171012-04
1 50733U 26636GJ  26037.47803241  .00000000  00000+0  00000-0 0  9997
2 50733  50.0000 132.0000 0000000   0.0000  42.0000 13.89609337    17
CTC1_L_00171013-01
1 50734U 23861TA  26037.47803241  .00000000  00000+0  00000-0 0  9995
2 50734  50.0000 144.0000 0000000   0.0000 144.0000 13.89609337    14
CTC1_L_00171013-02
1 50735U 22405CO  26037.47803241  .00000000  00000+0  00000-0 0  9999
2 50735  50.0000 144.0000 0000000   0.0000 234.0000 13.89609337    15
CTC1_L_00171013-03
1 50736U 24039KT  26037.47803241  .00000000  00000+0  00000-0 0  9995
2 50736  50.0000 144.0000 0000000   0.0000 324.0000 13.89609337    16
CTC1_L_00171013-04
1 50737U 24460WU  26037.47803241  .00000000  00000+0  00000-0 0  9994
2 50737  50.0000 144.0000 0000000   0.0000  54.0000 13.89609337    17
CTC1_L_00171014-01
1 50738U 26135DQ  26037.47803241  .00000000  00000+0  00000-0 0  9996
2 50738  50.0000 156.0000 0000000   0.0000 156.0000 13.89609337    14
CTC1_L_00171014-02
1 50739U 22270IP  26037.47803241  .00000000  00000+0  00000-0 0  9993
2 50739  50.0000 156.0000 0000000   0.0000 246.0000 13.89609337    15
CTC1_L_00171014-03
1 50740U 23215HF  26037.47803241  .00000000  00000+0  00000-0 0  9995
2 50740  50.0000 156.0000 0000000   0.0000 336.0000 13.89609337    17
CTC1_L_00171014-04
1 50741U 22239YX  26037.47803241  .00000000  00000+0  00000-0 0  9991
2 50741  50.0000 156.0000 0000000   0.0000  66.0000 13.89609337    18
CTC1_L_00171015-01
1 50742U 24702DN  26037.47803241  .00000000  00000+0  00000-0 0  9999
2 50742  50.0000 168.0000 0000000   0.0000 168.0000 13.89609337    15
CTC1_L_00171015-02
1 50743U 25615LQ  26037.47803241  .00000000  00000+0  00000-0 0  9994
2 50743  50.0000 168.0000 0000000   0.0000 258.0000 13.89609337    16
CTC1_L_00171015-03
1 50744U 22018MY  26037.47803241  .00000000  00000+0  00000-0 0  9999
2 50744  50.0000 168.0000 0000000   0.0000 348.0000 13.89609337    17
CTC1_L_00171015-04
1 50745U 25654Y   26037.47803241  .00000000  00000+0  00000-0 0  9999
2 50745  50.0000 168.0000 0000000   0.0000  78.0000 13.89609337    18
CTC1_L_00171016-01
1 50746U 22431XW  26037.47803241  .00000000  00000+0  00000-0 0  9990
2 50746  50.0000 180.0000 0000000   0.0000 180.0000 13.89609337    17
CTC1_L_00171016-02
1 50747U 22444US  26037.47803241  .00000000  00000+0  00000-0 0  9995
2 50747  50.0000 180.0000 0000000   0.0000 270.0000 13.89609337    18
